PRAETORIAN SDA_617      
1 65580U 25203R   26088.21767217  .00000090  00000+0  71094-4 0  9996
2 65580  81.2998  84.8329 0008559  54.2738 305.9213 13.83193897 27636
PRAETORIAN SDA_618      
1 65581U 25203S   26088.06459073  .00000258  00000+0  21886-3 0  9997
2 65581  81.2983  84.7644 0010838  54.5602 305.6565 13.84763842 27626
PRAETORIAN SDA_619      
1 65582U 25203T   26087.97979371  .00000347  00000+0  30165-3 0  9994
2 65582  81.3007  85.0165 0009140  53.5961 306.6037 13.83933836 28232
PRAETORIAN SDA_620      
1 65583U 25203U   26088.06435554  .00000260  00000+0  22484-3 0  9995
2 65583  81.2989  84.9375 0008551  52.7763 307.4173 13.83707722 27612
PRAETORIAN SDA_621      
1 65584U 25203V   26088.11957995  .00000075  00000+0  57088-4 0  9993
2 65584  81.2981  84.8313 0008401  49.2267 310.9618 13.83789789 27627
PRAETORIAN SDA_601      
1 65585U 25203W   26088.06322579  .00000229  00000+0  19693-3 0  9992
2 65585  81.2995  85.1097 0006495  64.7048 295.4780 13.83487491 27606
