[{"OBJECT_NAME":"PRAETORIAN SDA_617","OBJECT_ID":"2025-203R","EPOCH":"2026-03-29T05:13:26.875488","MEAN_MOTION":13.83193897,"ECCENTRICITY":0.0008559,"INCLINATION":81.2998,"RA_OF_ASC_NODE":84.8329,"ARG_OF_PERICENTER":54.2738,"MEAN_ANOMALY":305.9213,"EPHEMERIS_TYPE":0,"CLASSIFICATION_TYPE":"U","NORAD_CAT_ID":65580,"ELEMENT_SET_NO":999,"REV_AT_EPOCH":2763,"BSTAR":7.1094e-5,"MEAN_MOTION_DOT":9.0e-7,"MEAN_MOTION_DDOT":0},{"OBJECT_NAME":"PRAETORIAN SDA_618","OBJECT_ID":"2025-203S","EPOCH":"2026-03-29T01:33:00.639072","MEAN_MOTION":13.84763842,"ECCENTRICITY":0.0010838,"INCLINATION":81.2983,"RA_OF_ASC_NODE":84.7644,"ARG_OF_PERICENTER":54.5602,"MEAN_ANOMALY":305.6565,"EPHEMERIS_TYPE":0,"CLASSIFICATION_TYPE":"U","NORAD_CAT_ID":65581,"ELEMENT_SET_NO":999,"REV_AT_EPOCH":2762,"BSTAR":0.00021886,"MEAN_MOTION_DOT":2.58e-6,"MEAN_MOTION_DDOT":0},{"OBJECT_NAME":"PRAETORIAN SDA_619","OBJECT_ID":"2025-203T","EPOCH":"2026-03-28T23:30:54.176544","MEAN_MOTION":13.83933836,"ECCENTRICITY":0.000914,"INCLINATION":81.3007,"RA_OF_ASC_NODE":85.0165,"ARG_OF_PERICENTER":53.5961,"MEAN_ANOMALY":306.6037,"EPHEMERIS_TYPE":0,"CLASSIFICATION_TYPE":"U","NORAD_CAT_ID":65582,"ELEMENT_SET_NO":999,"REV_AT_EPOCH":2823,"BSTAR":0.00030165,"MEAN_MOTION_DOT":3.47e-6,"MEAN_MOTION_DDOT":0},{"OBJECT_NAME":"PRAETORIAN SDA_620","OBJECT_ID":"2025-203U","EPOCH":"2026-03-29T01:32:40.318656","MEAN_MOTION":13.83707722,"ECCENTRICITY":0.0008551,"INCLINATION":81.2989,"RA_OF_ASC_NODE":84.9375,"ARG_OF_PERICENTER":52.7763,"MEAN_ANOMALY":307.4173,"EPHEMERIS_TYPE":0,"CLASSIFICATION_TYPE":"U","NORAD_CAT_ID":65583,"ELEMENT_SET_NO":999,"REV_AT_EPOCH":2761,"BSTAR":0.00022484,"MEAN_MOTION_DOT":2.6e-6,"MEAN_MOTION_DDOT":0},{"OBJECT_NAME":"PRAETORIAN SDA_621","OBJECT_ID":"2025-203V","EPOCH":"2026-03-29T02:52:11.707680","MEAN_MOTION":13.83789789,"ECCENTRICITY":0.0008401,"INCLINATION":81.2981,"RA_OF_ASC_NODE":84.8313,"ARG_OF_PERICENTER":49.2267,"MEAN_ANOMALY":310.9618,"EPHEMERIS_TYPE":0,"CLASSIFICATION_TYPE":"U","NORAD_CAT_ID":65584,"ELEMENT_SET_NO":999,"REV_AT_EPOCH":2762,"BSTAR":5.7088e-5,"MEAN_MOTION_DOT":7.5e-7,"MEAN_MOTION_DDOT":0},{"OBJECT_NAME":"PRAETORIAN SDA_601","OBJECT_ID":"2025-203W","EPOCH":"2026-03-29T01:31:02.708256","MEAN_MOTION":13.83487491,"ECCENTRICITY":0.0006495,"INCLINATION":81.2995,"RA_OF_ASC_NODE":85.1097,"ARG_OF_PERICENTER":64.7048,"MEAN_ANOMALY":295.478,"EPHEMERIS_TYPE":0,"CLASSIFICATION_TYPE":"U","NORAD_CAT_ID":65585,"ELEMENT_SET_NO":999,"REV_AT_EPOCH":2760,"BSTAR":0.00019693,"MEAN_MOTION_DOT":2.29e-6,"MEAN_MOTION_DDOT":0}]
